[{"OBJECT_NAME":"GOES 18","OBJECT_ID":"2022-021A","EPOCH":"2026-03-04T11:59:38.898528","MEAN_MOTION":1.00272095,"ECCENTRICITY":6.571e-5,"INCLINATION":0.0304,"RA_OF_ASC_NODE":75.7612,"ARG_OF_PERICENTER":323.5131,"MEAN_ANOMALY":165.8689,"EPHEMERIS_TYPE":0,"CLASSIFICATION_TYPE":"U","NORAD_CAT_ID":51850,"ELEMENT_SET_NO":999,"REV_AT_EPOCH":554,"BSTAR":0,"MEAN_MOTION_DOT":8.5e-7,"MEAN_MOTION_DDOT":0},{"OBJECT_NAME":"GOES 19","OBJECT_ID":"2024-119A","EPOCH":"2026-03-04T08:09:38.820096","MEAN_MOTION":1.0027197,"ECCENTRICITY":9.96e-5,"INCLINATION":0.0165,"RA_OF_ASC_NODE":326.7117,"ARG_OF_PERICENTER":53.9137,"MEAN_ANOMALY":188.6733,"EPHEMERIS_TYPE":0,"CLASSIFICATION_TYPE":"U","NORAD_CAT_ID":60133,"ELEMENT_SET_NO":999,"REV_AT_EPOCH":591,"BSTAR":0,"MEAN_MOTION_DOT":-2.6e-6,"MEAN_MOTION_DDOT":0}]
