GOES 18                 
1 51850U 22021A   26063.49975577  .00000085  00000+0  00000+0 0  9997
2 51850   0.0304  75.7612 0000657 323.5131 165.8689  1.00272095  5545
GOES 19                 
1 60133U 24119A   26063.34003264 -.00000260  00000+0  00000+0 0  9996
2 60133   0.0165 326.7117 0000996  53.9137 188.6733  1.00271970  5914
